{
    "links": {
        "self": "http://www.neowsapp.com/rest/v1/neo/54051177?api_key=iIulBulltgU6a56xZRHN4H3l9WmuAYTsLGpBGhQ2"
    },
    "id": "54051177",
    "neo_reference_id": "54051177",
    "name": "(2020 QE1)",
    "designation": "2020 QE1",
    "nasa_jpl_url": "http://ssd.jpl.nasa.gov/sbdb.cgi?sstr=54051177",
    "absolute_magnitude_h": 26.552,
    "estimated_diameter": {
        "kilometers": {
            "estimated_diameter_min": 0.0130063362,
            "estimated_diameter_max": 0.0290830519
        },
        "meters": {
            "estimated_diameter_min": 13.0063362221,
            "estimated_diameter_max": 29.0830519308
        },
        "miles": {
            "estimated_diameter_min": 0.0080817601,
            "estimated_diameter_max": 0.0180713651
        },
        "feet": {
            "estimated_diameter_min": 42.6717081309,
            "estimated_diameter_max": 95.4168400967
        }
    },
    "is_potentially_hazardous_asteroid": false,
    "close_approach_data": [
        {
            "close_approach_date": "2020-08-18",
            "close_approach_date_full": "2020-Aug-18 14:24",
            "epoch_date_close_approach": 1597760640000,
            "relative_velocity": {
                "kilometers_per_second": "6.3686962595",
                "kilometers_per_hour": "22927.3065342512",
                "miles_per_hour": "14246.1366629074"
            },
            "miss_distance": {
                "astronomical": "0.0432087946",
                "lunar": "16.8082210994",
                "kilometers": "6463943.637427502",
                "miles": "4016508.3283314476"
            },
            "orbiting_body": "Earth"
        }
    ],
    "orbital_data": {
        "orbit_id": "1",
        "orbit_determination_date": "2020-08-18 23:42:21",
        "first_observation_date": "2020-08-11",
        "last_observation_date": "2020-08-19",
        "data_arc_in_days": 8,
        "observations_used": 18,
        "orbit_uncertainty": "8",
        "minimum_orbit_intersection": ".0417591",
        "jupiter_tisserand_invariant": "3.515",
        "epoch_osculation": "2459074.5",
        "eccentricity": ".5130742065733107",
        "semi_major_axis": "2.159515124040098",
        "inclination": "1.188255528744738",
        "ascending_node_longitude": "302.9005335524963",
        "orbital_period": "1159.131749892883",
        "perihelion_distance": "1.05152361519016",
        "perihelion_argument": "29.86226748232361",
        "aphelion_distance": "3.267506632890036",
        "perihelion_time": "2459085.903040373174",
        "mean_anomaly": "356.4584745998701",
        "mean_motion": ".3105772920405881",
        "equinox": "J2000",
        "orbit_class": {
            "orbit_class_type": "AMO",
            "orbit_class_description": "Near-Earth asteroid orbits similar to that of 1221 Amor",
            "orbit_class_range": "1.017 AU < q (perihelion) < 1.3 AU"
        }
    },
    "is_sentry_object": false
}